*******************************************************************************
JPL/HORIZONS               1684 Iguassu (1951 QE)          2023-Sep-04 11:13:34
Rec #:    1684 (+COV) Soln.date: 2023-Aug-22_08:45:42   # obs: 4353 (1922-2023)
 
IAU76/J2000 helio. ecliptic osc. elements (au, days, deg., period=Julian yrs):
 
  EPOCH=  2456988.5 ! 2014-Nov-27.00 (TDB)         Residual RMS= .27555
   EC= .1245299376585604   QR= 2.711295003268692   TP= 2457372.0693516829
   OM= 105.4147710578115   W=  153.9757818125802   IN= 3.666944409126617
   A= 3.096959130752397    MA= 290.6343019497633   ADIST= 3.482623258236102
   PER= 5.45019            N= .18084265            ANGMOM= .030036916
   DAN= 3.43311            DDN= 2.74208            L= 259.4368195
   B= 1.6079886            MOID= 1.69551003        TP= 2015-Dec-15.5693516829
 
Asteroid physical parameters (km, seconds, rotational period in hours):
   GM= n.a.                RAD= 15.105             ROTPER= 6.4156
   H= 11.05                G= .150                 B-V= n.a.
                           ALBEDO= .093            STYP= n.a.

ASTEROID comments: 
1: soln ref.= JPL#59, OCC=0
2: source=ORB
*******************************************************************************


*******************************************************************************
Ephemeris / API_USER Mon Sep  4 11:13:34 2023 Pasadena, USA      / Horizons
*******************************************************************************
Target body name: 1684 Iguassu (1951 QE)          {source: JPL#59}
Center body name: Solar System Barycenter (0)     {source: DE441}
Center-site name: BODY CENTER
*******************************************************************************
Start time      : A.D. 2023-Aug-12 00:00:00.0000 TDB
Stop  time      : A.D. 2023-Aug-13 00:00:00.0000 TDB
Step-size       : 2880 minutes
*******************************************************************************
Center geodetic : 0.0, 0.0, 0.0                   {E-lon(deg),Lat(deg),Alt(km)}
Center cylindric: 0.0, 0.0, 0.0                   {E-lon(deg),Dxy(km),Dz(km)}
Center radii    : (undefined)
Small perturbers: Yes                             {source: SB441-N16}
Output units    : KM-S
Calendar mode   : Mixed Julian/Gregorian
Output type     : GEOMETRIC cartesian states
Output format   : 2 (position and velocity)
Reference frame : Ecliptic of J2000.0
*******************************************************************************
Initial IAU76/J2000 heliocentric ecliptic osculating elements (au, days, deg.):
  EPOCH=  2456988.5 ! 2014-Nov-27.00 (TDB)         Residual RMS= .27555        
   EC= .1245299376585604   QR= 2.711295003268692   TP= 2457372.0693516829      
   OM= 105.4147710578115   W=  153.9757818125802   IN= 3.666944409126617       
  Equivalent ICRF heliocentric cartesian coordinates (au, au/d):
   X=-2.992825331461773E+00  Y= 1.198101731892517E-01  Z= 2.495936742903876E-01
  VX= 5.294553769949046E-04 VY=-9.278343183419377E-03 VZ=-3.871657949872018E-03
Asteroid physical parameters (km, seconds, rotational period in hours):        
   GM= n.a.                RAD= 15.105             ROTPER= 6.4156              
   H= 11.05                G= .150                 B-V= n.a.                   
                           ALBEDO= .093            STYP= n.a.                  
*******************************************************************************
JDTDB
   X     Y     Z
   VX    VY    VZ
*******************************************************************************
$$SOE
2460168.500000000 = A.D. 2023-Aug-12 00:00:00.0000 TDB 
 X = 3.127865415309849E+08 Y = 4.065337233160971E+08 Z =-2.616886160255529E+07
 VX=-1.128392766961904E+01 VY= 1.006839129143356E+01 VZ= 5.309033100334131E-01
$$EOE
*******************************************************************************
 
TIME

  Barycentric Dynamical Time ("TDB" or T_eph) output was requested. This
continuous coordinate time is equivalent to the relativistic proper time
of a clock at rest in a reference frame co-moving with the solar system
barycenter but outside the system's gravity well. It is the independent
variable in the solar system relativistic equations of motion.

  TDB runs at a uniform rate of one SI second per second and is independent
of irregularities in Earth's rotation.
 
CALENDAR SYSTEM

  Mixed calendar mode was active such that calendar dates after AD 1582-Oct-15
(if any) are in the modern Gregorian system. Dates prior to 1582-Oct-5 (if any)
are in the Julian calendar system, which is automatically extended for dates
prior to its adoption on 45-Jan-1 BC.  The Julian calendar is useful for
matching historical dates. The Gregorian calendar more accurately corresponds
to the Earth's orbital motion and seasons. A "Gregorian-only" calendar mode is
available if such physical events are the primary interest.

REFERENCE FRAME AND COORDINATES

  Ecliptic at the standard reference epoch

    Reference epoch: J2000.0
    X-Y plane: adopted Earth orbital plane at the reference epoch
               Note: IAU76 obliquity of 84381.448 arcseconds wrt ICRF X-Y plane
    X-axis   : ICRF
    Z-axis   : perpendicular to the X-Y plane in the directional (+ or -) sense
               of Earth's north pole at the reference epoch.

  Symbol meaning:

    JDTDB    Julian Day Number, Barycentric Dynamical Time
      X      X-component of position vector (km)
      Y      Y-component of position vector (km)
      Z      Z-component of position vector (km)
      VX     X-component of velocity vector (km/sec)                           
      VY     Y-component of velocity vector (km/sec)                           
      VZ     Z-component of velocity vector (km/sec)                           

ABERRATIONS AND CORRECTIONS

 Geometric state vectors have NO corrections or aberrations applied.

Computations by ...

    Solar System Dynamics Group, Horizons On-Line Ephemeris System
    4800 Oak Grove Drive, Jet Propulsion Laboratory
    Pasadena, CA  91109   USA

    General site: https://ssd.jpl.nasa.gov/
    Mailing list: https://ssd.jpl.nasa.gov/email_list.html
    System news : https://ssd.jpl.nasa.gov/horizons/news.html
    User Guide  : https://ssd.jpl.nasa.gov/horizons/manual.html
    Connect     : browser        https://ssd.jpl.nasa.gov/horizons/app.html#/x
                  API            https://ssd-api.jpl.nasa.gov/doc/horizons.html
                  command-line   telnet ssd.jpl.nasa.gov 6775
                  e-mail/batch   https://ssd.jpl.nasa.gov/ftp/ssd/hrzn_batch.txt
                  scripts        https://ssd.jpl.nasa.gov/ftp/ssd/SCRIPTS
    Author      : Jon.D.Giorgini@jpl.nasa.gov
*******************************************************************************
